[Satellite]
VERSION=1.1
NAME=IRIDIUM 122 [+]
NICKNAME=IRIDIUM 122 [+]
TLE1=1 42957U 17061C   20157.68045122  .00000070  00000-0  18077-4 0  9999
TLE2=2 42957  86.4007 225.5765 0002772  81.8088 278.3422 14.34216657139096
STATUS=0
